<?xml version="1.0" encoding="UTF-8"?>
<kml xmlns="http://www.opengis.net/kml/2.2" xmlns:gx="http://www.google.com/kml/ext/2.2" xmlns:kml="http://www.opengis.net/kml/2.2" xmlns:atom="http://www.w3.org/2005/Atom">
<Document>
	<name>263-1.kml</name>
	<StyleMap id="m_ylw-pushpin">
		<Pair>
			<key>normal</key>
			<styleUrl>#s_ylw-pushpin</styleUrl>
		</Pair>
		<Pair>
			<key>highlight</key>
			<styleUrl>#s_ylw-pushpin_hl</styleUrl>
		</Pair>
	</StyleMap>
	<Style id="s_ylw-pushpin">
		<IconStyle>
			<scale>1.1</scale>
			<Icon>
				<href>http://maps.google.com/mapfiles/kml/pushpin/ylw-pushpin.png</href>
			</Icon>
			<hotSpot x="20" y="2" xunits="pixels" yunits="pixels"/>
		</IconStyle>
	</Style>
	<Style id="s_ylw-pushpin_hl">
		<IconStyle>
			<scale>1.3</scale>
			<Icon>
				<href>http://maps.google.com/mapfiles/kml/pushpin/ylw-pushpin.png</href>
			</Icon>
			<hotSpot x="20" y="2" xunits="pixels" yunits="pixels"/>
		</IconStyle>
	</Style>
	<Placemark>
		<name>263-1</name>
		<styleUrl>#m_ylw-pushpin</styleUrl>
		<LineString>
			<tessellate>1</tessellate>
			<coordinates>
				127.6742092902919,26.2330114460769,0 127.6754209680215,26.23183324989215,0 127.6720550922915,26.22748799852057,0 127.6501019042199,26.22057056925222,0 127.6437813142239,26.22812265129021,0 127.6337258603579,26.26204999133081,0 127.6747764480147,26.47053968473858,0 127.6859032314809,26.74901094558276,0 127.9496849497897,27.18754859316486,0 128.9849327447343,28.47746555073352,0 131.1717227640804,30.19636832916192,0 133.1596451480267,32.54320659851399,0 135.8702402838807,33.24326189491202,0 139.768764756818,33.67411654153408,0 141.1481269957843,35.71029728629617,0 142.3819681433859,39.68927549820013,0 142.0868528148296,40.2919802996034,0 141.6572864127837,40.59346302039915,0 141.5325277774645,40.56950464694385,0 141.5314440229237,40.55434563386959,0 141.5249803728681,40.55206299570443,0 141.511238849634,40.55532225547996,0 141.5033990035088,40.55387127198178,0 141.5030867201311,40.55285160505837,0 
			</coordinates>
		</LineString>
		<atom:link rel="app" href="https://www.google.com/earth/about/versions/#earth-pro" title="Google Earth Pro 7.3.7.1155"></atom:link>
	</Placemark>
</Document>
</kml>
