<?xml version="1.0" encoding="UTF-8"?>
<kml xmlns="http://www.opengis.net/kml/2.2" xmlns:gx="http://www.google.com/kml/ext/2.2" xmlns:kml="http://www.opengis.net/kml/2.2" xmlns:atom="http://www.w3.org/2005/Atom">
<Document>
	<name>269-3.kml</name>
	<StyleMap id="m_ylw-pushpin">
		<Pair>
			<key>normal</key>
			<styleUrl>#s_ylw-pushpin</styleUrl>
		</Pair>
		<Pair>
			<key>highlight</key>
			<styleUrl>#s_ylw-pushpin_hl</styleUrl>
		</Pair>
	</StyleMap>
	<Style id="s_ylw-pushpin">
		<IconStyle>
			<scale>1.1</scale>
			<Icon>
				<href>http://maps.google.com/mapfiles/kml/pushpin/ylw-pushpin.png</href>
			</Icon>
			<hotSpot x="20" y="2" xunits="pixels" yunits="pixels"/>
		</IconStyle>
	</Style>
	<Style id="s_ylw-pushpin_hl">
		<IconStyle>
			<scale>1.3</scale>
			<Icon>
				<href>http://maps.google.com/mapfiles/kml/pushpin/ylw-pushpin.png</href>
			</Icon>
			<hotSpot x="20" y="2" xunits="pixels" yunits="pixels"/>
		</IconStyle>
	</Style>
	<Placemark>
		<name>269-3</name>
		<styleUrl>#m_ylw-pushpin</styleUrl>
		<LineString>
			<tessellate>1</tessellate>
			<coordinates>
				123.0051075104674,24.4911368693526,0 123.1599086973724,24.63671370098037,0 125.3654526457956,25.23070015126009,0 126.7235889529794,26.79083215428316,0 128.2201371947097,28.11865754280369,0 128.0434901006519,32.33969504013265,0 128.5787875258593,33.35856839868796,0 131.2877673039507,35.39060417994936,0 135.0426311998236,36.18373629871215,0 136.7672572941482,38.06964893454072,0 139.5378909925706,41.12903346015059,0 140.2820815219389,41.33208088306765,0 140.6853218852115,41.27054128495583,0 140.7102086379444,41.08733679800515,0 140.7416378206243,40.84358964700861,0 140.7384017632569,40.83748128541258,0 140.7434396081402,40.83303502797671,0 140.7453363731221,40.83299069804375,0 
			</coordinates>
		</LineString>
		<atom:link rel="app" href="https://www.google.com/earth/about/versions/#earth-pro" title="Google Earth Pro 7.3.7.1155"></atom:link>
	</Placemark>
</Document>
</kml>
