<?xml version="1.0" encoding="UTF-8"?>
<kml xmlns="http://www.opengis.net/kml/2.2" xmlns:gx="http://www.google.com/kml/ext/2.2" xmlns:kml="http://www.opengis.net/kml/2.2" xmlns:atom="http://www.w3.org/2005/Atom">
<Document>
	<name>269-1.2.kml</name>
	<StyleMap id="m_ylw-pushpin">
		<Pair>
			<key>normal</key>
			<styleUrl>#s_ylw-pushpin</styleUrl>
		</Pair>
		<Pair>
			<key>highlight</key>
			<styleUrl>#s_ylw-pushpin_hl</styleUrl>
		</Pair>
	</StyleMap>
	<Style id="s_ylw-pushpin">
		<IconStyle>
			<scale>1.1</scale>
			<Icon>
				<href>http://maps.google.com/mapfiles/kml/pushpin/ylw-pushpin.png</href>
			</Icon>
			<hotSpot x="20" y="2" xunits="pixels" yunits="pixels"/>
		</IconStyle>
	</Style>
	<Style id="s_ylw-pushpin_hl">
		<IconStyle>
			<scale>1.3</scale>
			<Icon>
				<href>http://maps.google.com/mapfiles/kml/pushpin/ylw-pushpin.png</href>
			</Icon>
			<hotSpot x="20" y="2" xunits="pixels" yunits="pixels"/>
		</IconStyle>
	</Style>
	<Placemark>
		<name>269-1.2</name>
		<styleUrl>#m_ylw-pushpin</styleUrl>
		<LineString>
			<tessellate>1</tessellate>
			<coordinates>
				125.0229746869879,11.25846022754496,0 125.0079688170446,11.25996500503014,0 124.9904685478637,11.26892472543351,0 124.9820666388123,11.27716097962707,0 124.9722345016436,11.28150882422426,0 124.9691886250627,11.29921419150127,0 124.9682420979496,11.32023067442115,0 124.9706097511911,11.32805934379766,0 124.9784902709873,11.33356891813982,0 124.9809533955673,11.34210116325912,0 124.9815446768988,11.35141060290809,0 124.9835790277833,11.36311752329118,0 124.9832212245107,11.37330551739921,0 124.9811665935063,11.37879390673413,0 124.9809948140231,11.37954357437454,0 124.9816331965681,11.3894052892023,0 124.9829157556884,11.39729874102464,0 124.983207249708,11.40533955080917,0 124.979591186284,11.41296648090124,0 124.9782335272848,11.42357353397333,0 124.9666584010281,11.42682094679257,0 124.9582685483335,11.42606955563273,0 124.9501325012104,11.43153977547354,0 124.9243342493074,11.43923059308167,0 124.8982204519199,11.44322217972596,0 124.8794640064325,11.45360279457821,0 124.8143348870788,11.4566902487391,0 124.774892674288,11.46558667949065,0 124.7358654703653,11.48513989807602,0 124.6974488772669,11.51938748044036,0 124.5388422916607,11.73445755430193,0 124.513587995893,11.75368282473341,0 124.4884511180219,11.763653798204,0 124.4163983415559,11.77458353522069,0 124.3945749403873,11.77457746295771,0 124.309511190452,11.74676609617708,0 124.2717820875301,11.72639454089392,0 124.1866957554492,11.64700645435187,0 123.9022689722121,11.62499780560217,0 123.3011141217497,11.79435750906106,0 123.2025299958731,11.73307824270968,0 122.8556891341379,11.77155221987198,0 122.1128059114472,11.99581916476813,0 121.9799668296028,11.99083606977931,0 121.9229318729314,12.02270750406076,0 121.776501238152,12.03544230295621,0 121.5598573746022,12.08132540939093,0 121.4166613745394,12.18152810030118,0 121.2431757444045,12.17150446911025,0 121.1589982099077,12.20048576230593,0 121.1072737570718,12.23760550946862,0 121.0936117766965,12.26495672771813,0 121.0902060485745,12.27904062126317,0 121.0861679654291,12.29119588839708,0 121.0691942798985,12.31797946507755,0 
			</coordinates>
		</LineString>
		<atom:link rel="app" href="https://www.google.com/earth/about/versions/#earth-pro" title="Google Earth Pro 7.3.7.1155"></atom:link>
	</Placemark>
</Document>
</kml>
