<?xml version="1.0" encoding="UTF-8"?>
<kml xmlns="http://www.opengis.net/kml/2.2" xmlns:gx="http://www.google.com/kml/ext/2.2" xmlns:kml="http://www.opengis.net/kml/2.2" xmlns:atom="http://www.w3.org/2005/Atom">
<Document>
	<name>269-1.2.kml</name>
	<StyleMap id="m_ylw-pushpin">
		<Pair>
			<key>normal</key>
			<styleUrl>#s_ylw-pushpin</styleUrl>
		</Pair>
		<Pair>
			<key>highlight</key>
			<styleUrl>#s_ylw-pushpin_hl</styleUrl>
		</Pair>
	</StyleMap>
	<Style id="s_ylw-pushpin">
		<IconStyle>
			<scale>1.1</scale>
			<Icon>
				<href>http://maps.google.com/mapfiles/kml/pushpin/ylw-pushpin.png</href>
			</Icon>
			<hotSpot x="20" y="2" xunits="pixels" yunits="pixels"/>
		</IconStyle>
	</Style>
	<Style id="s_ylw-pushpin_hl">
		<IconStyle>
			<scale>1.3</scale>
			<Icon>
				<href>http://maps.google.com/mapfiles/kml/pushpin/ylw-pushpin.png</href>
			</Icon>
			<hotSpot x="20" y="2" xunits="pixels" yunits="pixels"/>
		</IconStyle>
	</Style>
	<Placemark>
		<name>269-1.2</name>
		<styleUrl>#m_ylw-pushpin</styleUrl>
		<LineString>
			<tessellate>1</tessellate>
			<coordinates>
				125.0229746869879,11.25846022754496,0 125.0738497917055,11.22893506495564,0 125.0796684793242,11.21690896112613,0 125.1769913114024,10.96174121074153,0 125.3580840366983,10.5437099771765,0 125.3948839322199,10.27915567509422,0 125.3293432117848,10.16307487990358,0 125.3895606480527,10.00557712992962,0 125.3580521987097,9.850847122814708,0 125.2595019886425,9.766408816036915,0 125.020662648714,9.754316672050294,0 123.6017241052863,8.850698414726773,0 122.8802572917555,9.007299019508382,0 122.5575744215163,9.381611373275099,0 122.2433142740979,9.729046131495233,0 121.7989730842949,10.37532234608942,0 120.8970711263529,12.1250657423886,0 120.9403008403267,12.25848738053034,0 121.0691942798985,12.31797946507755,0 
			</coordinates>
		</LineString>
		<atom:link rel="app" href="https://www.google.com/earth/about/versions/#earth-pro" title="Google Earth Pro 7.3.7.1155"></atom:link>
	</Placemark>
</Document>
</kml>
